NORAD_CAT_ID,OBJECT_NAME,OBJECT_TYPE,EPOCH,MEAN_MOTION,ECCENTRICITY,INCLINATION,RA_OF_ASC_NODE,ARG_OF_PERICENTER,MEAN_ANOMALY,BSTAR,MEAN_MOTION_DOT,MEAN_MOTION_DDOT,TLE_LINE0,TLE_LINE1,TLE_LINE2,SEMIMAJOR_AXIS,PERIOD,APOGEE,PERIGEE,DECAYED
54082.0,STARLINK-5210,PAYLOAD,2023-02-25 20:08:03,15.08840868,0.0001204,53.2158,267.6306,90.7888,269.3242,9.226e-06,-1.41e-06,0.0,0 STARLINK-5210,1 54082U 22136AH  23056.83893384 -.00000141  00000-0  92260-5 0  9996,2 54082  53.2158 267.6306 0001204  90.7888 269.3242 15.08840868 20213,6917.878,95.437,540.576,538.91,0.0
54082.0,STARLINK-5210,PAYLOAD,2023-02-26 00:54:13,15.0884275,0.0001157,53.2161,266.7394,78.0124,282.0998,0.00022898,3.359e-05,0.0,0 STARLINK-5210,1 54082U 22136AH  23057.03765503  .00003359  00000-0  22898-3 0  9991,2 54082  53.2161 266.7394 0001157  78.0124 282.0998 15.08842750 19763,6917.872,95.437,540.537,538.937,0.0
54082.0,STARLINK-5210,PAYLOAD,2023-02-26 19:58:50,15.08852717,0.0001133,53.2168,263.1713,84.6787,275.4334,0.0004023,6.123e-05,0.0,0 STARLINK-5210,1 54082U 22136AH  23057.83253196  .00006123  00000-0  40230-3 0  9991,2 54082  53.2168 263.1713 0001133  84.6787 275.4334 15.08852717 19885,6917.842,95.437,540.49,538.923,0.0
54082.0,STARLINK-5210,PAYLOAD,2023-02-27 00:44:59,15.08858531,0.0001197,53.2169,262.2782,86.6102,273.5027,0.00057067,8.811e-05,0.0,0 STARLINK-5210,1 54082U 22136AH  23058.03124953  .00008811  00000-0  57067-3 0  9994,2 54082  53.2169 262.2782 0001197  86.6102 273.5027 15.08858531 20391,6917.824,95.436,540.517,538.861,0.0
54082.0,STARLINK-5210,PAYLOAD,2023-02-27 19:49:37,15.08877815,0.0001163,53.2169,258.7102,84.8728,275.2397,0.0013571,0.00021399,0.0,0 STARLINK-5210,1 54082U 22136AH  23058.82612354  .00021399  00000-0  13571-2 0  9995,2 54082  53.2169 258.7102 0001163  84.8728 275.2397 15.08877815 20030,6917.765,95.435,540.434,538.825,0.0
54082.0,STARLINK-5210,PAYLOAD,2023-02-28 00:35:46,15.08873516,0.0001197,53.2167,257.8178,87.5879,272.525,0.0010708,0.0001681,0.0,0 STARLINK-5210,1 54082U 22136AH  23059.02484153  .00016810  00000-0  10708-2 0  9993,2 54082  53.2167 257.8178 0001197  87.5879 272.5250 15.08873516 20543,6917.778,95.435,540.471,538.815,0.0
54082.0,STARLINK-5210,PAYLOAD,2023-02-28 19:40:25,15.08818003,0.0001236,53.2169,254.2499,67.3201,292.7922,7.161e-05,8.51e-06,0.0,0 STARLINK-5210,1 54082U 22136AH  23059.81974101  .00000851  00000-0  71610-4 0  9996,2 54082  53.2169 254.2499 0001236  67.3201 292.7922 15.08818003 20664,6917.948,95.439,540.668,538.958,0.0
54082.0,STARLINK-5210,PAYLOAD,2023-02-28 21:15:48,15.08815596,0.0001275,53.2171,253.9529,68.4512,291.6616,2.5593e-05,1.19e-06,0.0,0 STARLINK-5210,1 54082U 22136AH  23059.88598272  .00000119  00000-0  25593-4 0  9990,2 54082  53.2171 253.9529 0001275  68.4512 291.6616 15.08815596 20197,6917.955,95.439,540.702,538.938,0.0
54082.0,STARLINK-5210,PAYLOAD,2023-03-01 19:31:13,15.08839467,0.0001193,53.2167,249.7896,61.4614,298.6498,0.00091841,0.00014358,0.0,0 STARLINK-5210,1 54082U 22136AH  23060.81335095  .00014358  00000-0  91841-3 0  9995,2 54082  53.2167 249.7896 0001193  61.4614 298.6498 15.08839467 20814,6917.882,95.438,540.572,538.922,0.0
54082.0,STARLINK-5210,PAYLOAD,2023-03-02 19:21:59,15.08869661,0.000125,53.2166,245.3291,62.3418,297.7701,0.00092986,0.00014554,0.0,0 STARLINK-5210,1 54082U 22136AH  23061.80694014  .00014554  00000-0  92986-3 0  9993,2 54082  53.2166 245.3291 0001250  62.3418 297.7701 15.08869661 20489,6917.79,95.436,540.519,538.79,0.0
54082.0,STARLINK-5210,PAYLOAD,2023-03-03 04:54:17,15.08874298,7.48e-05,53.2164,243.5448,48.0809,312.0247,0.00091125,0.00014258,0.0,0 STARLINK-5210,1 54082U 22136AH  23062.20437364  .00014258  00000-0  91125-3 0  9996,2 54082  53.2164 243.5448 0000748  48.0809 312.0247 15.08874298 21026,6917.776,95.435,540.158,539.123,0.0
54082.0,STARLINK-5210,PAYLOAD,2023-03-03 23:58:55,15.08862658,0.0001839,53.2159,239.9757,69.7017,290.4173,0.00059064,9.13e-05,0.0,0 STARLINK-5210,1 54082U 22136AH  23062.99925114  .00009130  00000-0  59064-3 0  9996,2 54082  53.2159 239.9757 0001839  69.7017 290.4173 15.08862658 21142,6917.811,95.436,540.948,538.404,0.0
54082.0,STARLINK-5210,PAYLOAD,2023-03-04 04:45:04,15.08835999,7.56e-05,53.2161,239.0844,102.9956,257.112,-0.00052852,-8.688e-05,0.0,0 STARLINK-5210,1 54082U 22136AH  23063.19796783 -.00008688  00000-0 -52852-3 0  9994,2 54082  53.2161 239.0844 0000756 102.9956 257.1120 15.08835999 21175,6917.893,95.438,540.281,539.235,0.0
54082.0,STARLINK-5210,PAYLOAD,2023-03-04 20:38:56,15.08835345,9.75e-05,53.2159,236.1106,76.9094,283.2007,0.0016923,0.00026744,0.0,0 STARLINK-5210,1 54082U 22136AH  23063.86037866  .00026744  00000-0  16923-2 0  9997,2 54082  53.2159 236.1106 0000975  76.9094 283.2007 15.08835345 20793,6917.895,95.438,540.434,539.085,0.0
54082.0,STARLINK-5210,PAYLOAD,2023-03-05 04:35:52,15.08837171,0.0001237,53.2153,234.6245,88.8605,271.2529,0.0007881,0.00012276,0.0,0 STARLINK-5210,1 54082U 22136AH  23064.19158018  .00012276  00000-0  78810-3 0  9996,2 54082  53.2153 234.6245 0001237  88.8605 271.2529 15.08837171 21321,6917.889,95.438,540.61,538.898,0.0
54082.0,STARLINK-5210,PAYLOAD,2023-03-05 18:54:20,15.08844051,0.0001391,53.2161,231.949,81.2813,278.8337,0.00044976,6.878e-05,0.0,0 STARLINK-5210,1 54082U 22136AH  23064.78774052  .00006878  00000-0  44976-3 0  9990,2 54082  53.2161 231.9490 0001391  81.2813 278.8337 15.08844051 20932,6917.868,95.437,540.695,538.771,0.0
54082.0,STARLINK-5210,PAYLOAD,2023-03-06 10:48:12,15.08842856,0.0001265,53.2159,228.975,76.7539,283.3594,0.00028434,4.241e-05,0.0,0 STARLINK-5210,1 54082U 22136AH  23065.45014099  .00004241  00000-0  28434-3 0  9996,2 54082  53.2159 228.9750 0001265  76.7539 283.3594 15.08842856 21510,6917.872,95.437,540.612,538.862,0.0
54082.0,STARLINK-5210,PAYLOAD,2023-03-06 17:09:44,15.08846834,0.000127,53.2161,227.7859,77.3694,282.744,0.00029733,4.448e-05,0.0,0 STARLINK-5210,1 54082U 22136AH  23065.71509899  .00004448  00000-0  29733-3 0  9994,2 54082  53.2161 227.7859 0001270  77.3694 282.7440 15.08846834 21079,6917.86,95.437,540.603,538.846,0.0
54082.0,STARLINK-5210,PAYLOAD,2023-03-06 21:55:53,15.08855438,0.0001527,53.2161,226.8938,75.2142,284.902,0.00039944,6.077e-05,0.0,0 STARLINK-5210,1 54082U 22136AH  23065.91381523  .00006077  00000-0  39944-3 0  9993,2 54082  53.2161 226.8938 0001527  75.2142 284.9020 15.08855438 21581,6917.833,95.437,540.755,538.642,0.0
54082.0,STARLINK-5210,PAYLOAD,2023-03-07 17:00:31,15.08851151,0.0001347,53.2173,223.3249,87.4622,272.6524,0.00029498,4.411e-05,0.0,0 STARLINK-5210,1 54082U 22136AH  23066.70869750  .00004411  00000-0  29498-3 0  9997,2 54082  53.2173 223.3249 0001347  87.4622 272.6524 15.08851151 21704,6917.846,95.437,540.643,538.779,0.0
54082.0,STARLINK-5210,PAYLOAD,2023-03-07 20:11:17,15.08854157,0.0001373,53.2172,222.7287,89.5186,270.5963,0.00039937,6.076e-05,0.0,0 STARLINK-5210,1 54082U 22136AH  23066.84117545  .00006076  00000-0  39937-3 0  9998,2 54082  53.2172 222.7287 0001373  89.5186 270.5963 15.08854157 21247,6917.837,95.437,540.652,538.752,0.0
54082.0,STARLINK-5210,PAYLOAD,2023-03-08 10:29:46,15.08833575,0.0001364,53.2157,220.053,85.7526,274.3622,0.00010301,1.352e-05,0.0,0 STARLINK-5210,1 54082U 22136AH  23067.43734268  .00001352  00000-0  10301-3 0  9997,2 54082  53.2157 220.0530 0001364  85.7526 274.3622 15.08833575 21816,6917.9,95.438,540.709,538.821,0.0
54082.0,STARLINK-5210,PAYLOAD,2023-03-08 18:26:42,15.08845899,0.0001334,53.2176,218.5668,94.4085,265.7059,0.0011477,0.00018028,0.0,0 STARLINK-5210,1 54082U 22136AH  23067.76854386  .00018028  00000-0  11477-2 0  9999,2 54082  53.2176 218.5668 0001334  94.4085 265.7059 15.08845899 21387,6917.862,95.437,540.65,538.805,0.0
54082.0,STARLINK-5210,PAYLOAD,2023-03-09 16:42:05,15.08873927,0.0001159,53.2182,214.4034,103.232,256.8801,0.0017662,0.00027959,0.0,0 STARLINK-5210,1 54082U 22136AH  23068.69589794  .00027959  00000-0  17662-2 0  9995,2 54082  53.2182 214.4034 0001159 103.2320 256.8801 15.08873927 22001,6917.777,95.435,540.443,538.84,0.0
54082.0,STARLINK-5210,PAYLOAD,2023-03-10 16:32:52,15.08849278,0.0001515,53.2181,209.9443,300.7215,59.3628,0.0004206,6.414e-05,0.0,0 STARLINK-5210,1 54082U 22136AH  23069.68950105  .00006414  00000-0  42060-3 0  9997,2 54082  53.2181 209.9443 0001515 300.7215  59.3628 15.08849278 22157,6917.852,95.437,540.765,538.669,0.0
54082.0,STARLINK-5210,PAYLOAD,2023-03-11 02:05:12,15.08828703,0.0001605,53.2181,208.16,90.2086,269.909,0.00044749,6.839e-05,0.0,0 STARLINK-5210,1 54082U 22136AH  23070.08694454  .00006839  00000-0  44749-3 0  9992,2 54082  53.2181 208.1600 0001605  90.2086 269.9090 15.08828703 22219,6917.915,95.438,540.89,538.67,0.0
54082.0,STARLINK-5210,PAYLOAD,2023-03-11 21:09:49,15.0885485,0.0001322,53.2173,204.5897,133.1161,226.9942,0.0016589,0.00026223,0.0,0 STARLINK-5210,1 54082U 22136AH  23070.88182107  .00026223  00000-0  16589-2 0  9996,2 54082  53.2173 204.5897 0001322 133.1161 226.9942 15.08854850 21855,6917.835,95.437,540.615,538.785,0.0
54082.0,STARLINK-5210,PAYLOAD,2023-03-12 08:17:32,15.08817842,0.0001337,53.2178,202.5113,91.8037,268.3108,-0.00041199,-6.835e-05,0.0,0 STARLINK-5210,1 54082U 22136AH  23071.34551357 -.00006835  00000-0 -41199-3 0  9990,2 54082  53.2178 202.5113 0001337  91.8037 268.3108 15.08817842 22403,6917.948,95.439,540.738,538.888,0.0
54082.0,STARLINK-5210,PAYLOAD,2023-03-12 13:03:41,15.08825521,0.0001522,53.215,201.6209,95.0117,265.1049,5.9326e-05,6.56e-06,0.0,0 STARLINK-5210,1 54082U 22136AH  23071.54423354  .00000656  00000-0  59326-4 0  9992,2 54082  53.2150 201.6209 0001522  95.0117 265.1049 15.08825521 21951,6917.925,95.438,540.843,538.737,0.0
54082.0,STARLINK-5210,PAYLOAD,2023-03-12 16:14:28,15.08842422,0.0001623,53.2185,201.025,85.9739,274.1438,0.00060036,9.28e-05,0.0,0 STARLINK-5210,1 54082U 22136AH  23071.67671423  .00009280  00000-0  60036-3 0  9999,2 54082  53.2185 201.0250 0001623  85.9739 274.1438 15.08842422 22456,6917.873,95.437,540.861,538.615,0.0
